[{"OBJECT_NAME":"CONTINUUM-1","OBJECT_ID":"2023-001AN","EPOCH":"2026-03-09T23:17:35.458656","MEAN_MOTION":15.27981258,"ECCENTRICITY":0.00109493,"INCLINATION":97.3456,"RA_OF_ASC_NODE":133.3964,"ARG_OF_PERICENTER":60.1976,"MEAN_ANOMALY":300.0351,"EPHEMERIS_TYPE":0,"CLASSIFICATION_TYPE":"U","NORAD_CAT_ID":55045,"ELEMENT_SET_NO":999,"REV_AT_EPOCH":17709,"BSTAR":0.00052859897,"MEAN_MOTION_DOT":0.00014395,"MEAN_MOTION_DDOT":0},{"OBJECT_NAME":"STARLINK-31895","OBJECT_ID":"2024-097Q","EPOCH":"2026-03-09T00:08:49.742592","MEAN_MOTION":15.27577588,"ECCENTRICITY":9.717e-5,"INCLINATION":42.9976,"RA_OF_ASC_NODE":278.1021,"ARG_OF_PERICENTER":290.4922,"MEAN_ANOMALY":69.5825,"EPHEMERIS_TYPE":0,"CLASSIFICATION_TYPE":"U","NORAD_CAT_ID":59849,"ELEMENT_SET_NO":999,"REV_AT_EPOCH":10181,"BSTAR":-4.849035e-5,"MEAN_MOTION_DOT":-1.596e-5,"MEAN_MOTION_DDOT":0}]
